{"fetched_at":"2026-07-17T17:38:25.457Z","source":"https://celestrak.org/NORAD/elements/gp.php?NAME=LEGION&FORMAT=JSON","constellation":"maxar-legion","records":[{"OBJECT_NAME":"LEGION 1","OBJECT_ID":"2024-081A","EPOCH":"2026-07-17T05:51:29.998080","CLASSIFICATION_TYPE":"U","MEAN_MOTION":15.16851364,"ECCENTRICITY":0.00077542,"INCLINATION":97.501,"RA_OF_ASC_NODE":275.7824,"ARG_OF_PERICENTER":261.1571,"MEAN_ANOMALY":98.8784,"EPHEMERIS_TYPE":0,"NORAD_CAT_ID":59625,"ELEMENT_SET_NO":999,"REV_AT_EPOCH":12209,"BSTAR":0.00009399319,"MEAN_MOTION_DOT":0.00001783,"MEAN_MOTION_DDOT":0},{"OBJECT_NAME":"LEGION 2","OBJECT_ID":"2024-081B","EPOCH":"2026-07-17T05:00:18.204192","CLASSIFICATION_TYPE":"U","MEAN_MOTION":15.16830386,"ECCENTRICITY":0.00103622,"INCLINATION":97.5011,"RA_OF_ASC_NODE":275.8439,"ARG_OF_PERICENTER":225.791,"MEAN_ANOMALY":134.2473,"EPHEMERIS_TYPE":0,"NORAD_CAT_ID":59626,"ELEMENT_SET_NO":999,"REV_AT_EPOCH":12209,"BSTAR":0.000097557422,"MEAN_MOTION_DOT":0.00001852,"MEAN_MOTION_DDOT":0},{"OBJECT_NAME":"LEGION 3","OBJECT_ID":"2024-146A","EPOCH":"2026-07-17T05:57:00.101376","CLASSIFICATION_TYPE":"U","MEAN_MOTION":15.15662038,"ECCENTRICITY":0.00080129,"INCLINATION":45.0016,"RA_OF_ASC_NODE":229.3857,"ARG_OF_PERICENTER":345.1677,"MEAN_ANOMALY":14.8965,"EPHEMERIS_TYPE":0,"NORAD_CAT_ID":60452,"ELEMENT_SET_NO":999,"REV_AT_EPOCH":10658,"BSTAR":0.000077362002,"MEAN_MOTION_DOT":0.00001233,"MEAN_MOTION_DDOT":0},{"OBJECT_NAME":"LEGION 4","OBJECT_ID":"2024-146B","EPOCH":"2026-07-17T05:56:34.742976","CLASSIFICATION_TYPE":"U","MEAN_MOTION":15.15689311,"ECCENTRICITY":0.00090375,"INCLINATION":45.0027,"RA_OF_ASC_NODE":321.2547,"ARG_OF_PERICENTER":126.4805,"MEAN_ANOMALY":233.6908,"EPHEMERIS_TYPE":0,"NORAD_CAT_ID":60453,"ELEMENT_SET_NO":999,"REV_AT_EPOCH":10543,"BSTAR":0.000094736387,"MEAN_MOTION_DOT":0.0000157,"MEAN_MOTION_DDOT":0},{"OBJECT_NAME":"LEGION 5","OBJECT_ID":"2025-025A","EPOCH":"2026-07-17T05:56:37.320288","CLASSIFICATION_TYPE":"U","MEAN_MOTION":15.15707829,"ECCENTRICITY":0.00080827,"INCLINATION":45.0016,"RA_OF_ASC_NODE":140.2131,"ARG_OF_PERICENTER":300.9146,"MEAN_ANOMALY":59.0937,"EPHEMERIS_TYPE":0,"NORAD_CAT_ID":62900,"ELEMENT_SET_NO":999,"REV_AT_EPOCH":7905,"BSTAR":0.000057765257,"MEAN_MOTION_DOT":0.00000855,"MEAN_MOTION_DDOT":0},{"OBJECT_NAME":"LEGION 6","OBJECT_ID":"2025-025B","EPOCH":"2026-07-17T01:10:40.121472","CLASSIFICATION_TYPE":"U","MEAN_MOTION":15.1569504,"ECCENTRICITY":0.00107654,"INCLINATION":45.0015,"RA_OF_ASC_NODE":50.4247,"ARG_OF_PERICENTER":286.0503,"MEAN_ANOMALY":73.919,"EPHEMERIS_TYPE":0,"NORAD_CAT_ID":62901,"ELEMENT_SET_NO":999,"REV_AT_EPOCH":8016,"BSTAR":0.00011121754,"MEAN_MOTION_DOT":0.00001891,"MEAN_MOTION_DDOT":0}]}
