LEGION 1                
1 59625U 24081A   26198.24409720  .00001783  00000+0  93993-4 0  9991
2 59625  97.5010 275.7824 0007754 261.1571  98.8784 15.16851364122090
LEGION 2                
1 59626U 24081B   26198.20854403  .00001852  00000+0  97557-4 0  9997
2 59626  97.5011 275.8439 0010362 225.7910 134.2473 15.16830386122098
LEGION 3                
1 60452U 24146A   26198.24791784  .00001233  00000+0  77362-4 0  9999
2 60452  45.0016 229.3857 0008012 345.1677  14.8965 15.15662038106585
LEGION 4                
1 60453U 24146B   26198.24762434  .00001570  00000+0  94736-4 0  9998
2 60453  45.0027 321.2547 0009037 126.4805 233.6908 15.15689311105431
LEGION 5                
1 62900U 25025A   26198.24765417  .00000855  00000+0  57765-4 0  9994
2 62900  45.0016 140.2131 0008082 300.9146  59.0937 15.15707829 79057
LEGION 6                
1 62901U 25025B   26198.04907548  .00001891  00000+0  11122-3 0  9993
2 62901  45.0015  50.4247 0010765 286.0503  73.9190 15.15695040 80160
